[
    {
        "Altitude(m)": 612513.9174878501,
        "Argument of Periapsis(deg)": 0.0,
        "Eccentricity": 0.0,
        "Inclination(deg)": 60.0,
        "Latitude(deg)": -28.135917566723812,
        "Longitude(deg)": 167.91306396473126,
        "Mean Anomaly(deg)": 212.72729999999999,
        "RAAN(deg)": 70.0,
        "Satellite Name": "Test1 321",
        "Satellite Number": 321,
        "Semi-Major Axis(m)": 6980739.136638005,
        "Time(s)": 0
    },
    {
        "Altitude(m)": 612708.2854835332,
        "Argument of Periapsis(deg)": 0.00010418945913296404,
        "Eccentricity": 0.0,
        "Inclination(deg)": 60.0,
        "Latitude(deg)": -28.647657330195077,
        "Longitude(deg)": 168.27029308909283,
        "Mean Anomaly(deg)": 213.34740614546183,
        "RAAN(deg)": 69.99957995086027,
        "Satellite Name": "Test1 321",
        "Satellite Number": 321,
        "Semi-Major Axis(m)": 6980739.136638005,
        "Time(s)": 10
    }
]